NORAD_CAT_ID,OBJECT_NAME,OBJECT_TYPE,EPOCH,MEAN_MOTION,ECCENTRICITY,INCLINATION,RA_OF_ASC_NODE,ARG_OF_PERICENTER,MEAN_ANOMALY,BSTAR,MEAN_MOTION_DOT,MEAN_MOTION_DDOT,TLE_LINE0,TLE_LINE1,TLE_LINE2,SEMIMAJOR_AXIS,PERIOD,APOGEE,PERIGEE,DECAYED
56487.0,STARLINK-6196,PAYLOAD,2024-06-04 01:42:17,14.99143509,0.0003154,69.9997,287.2868,270.1252,89.9546,0.00011268,1.28e-05,0.0,0 STARLINK-6196,1 56487U 23064AR  24156.07103597  .00001280  00000-0  11268-3 0  9997,2 56487  69.9997 287.2868 0003154 270.1252  89.9546 14.99143509 60185,6947.678,96.055,571.735,567.352,0.0
56487.0,STARLINK-6196,PAYLOAD,2024-06-04 14:30:56,14.99150455,0.000301,69.9994,285.9392,268.3988,91.6827,-2.4683e-05,-3.95e-06,0.0,0 STARLINK-6196,1 56487U 23064AR  24156.60482623 -.00000395  00000-0 -24683-4 0  9990,2 56487  69.9994 285.9392 0003010 268.3988  91.6827 14.99150455 59903,6947.657,96.054,571.613,567.431,0.0
56487.0,STARLINK-6196,PAYLOAD,2024-06-04 19:19:11,14.99149325,0.0003222,69.9989,285.4331,270.5949,89.4841,0.00012553,1.437e-05,0.0,0 STARLINK-6196,1 56487U 23064AR  24156.80499410  .00001437  00000-0  12553-3 0  9992,2 56487  69.9989 285.4331 0003222 270.5949  89.4841 14.99149325 59930,6947.66,96.054,571.764,567.287,0.0
56487.0,STARLINK-6196,PAYLOAD,2024-06-05 01:43:31,14.99143561,0.0003666,69.9976,284.7576,273.5021,86.5719,6.3985e-05,6.86e-06,0.0,0 STARLINK-6196,1 56487U 23064AR  24157.07189390  .00000686  00000-0  63985-4 0  9996,2 56487  69.9976 284.7576 0003666 273.5021  86.5719 14.99143561 60339,6947.678,96.055,572.09,566.996,0.0
56487.0,STARLINK-6196,PAYLOAD,2024-06-05 11:20:02,14.99130909,0.0003099,69.9996,283.7494,268.3888,91.6917,-0.00010237,-1.341e-05,0.0,0 STARLINK-6196,1 56487U 23064AR  24157.47225136 -.00001341  00000-0 -10237-3 0  9991,2 56487  69.9996 283.7494 0003099 268.3888  91.6917 14.99130909 60397,6947.717,96.056,571.735,567.429,0.0
56487.0,STARLINK-6196,PAYLOAD,2024-06-06 11:21:16,14.99141505,0.0003098,69.9992,281.222,269.6125,90.4679,7.6149e-05,8.34e-06,0.0,0 STARLINK-6196,1 56487U 23064AR  24158.47310251  .00000834  00000-0  76149-4 0  9994,2 56487  69.9992 281.2220 0003098 269.6125  90.4679 14.99141505 60543,6947.685,96.055,571.702,567.397,0.0
56487.0,STARLINK-6196,PAYLOAD,2024-06-06 14:33:25,14.99148448,0.0003231,69.9989,280.8851,270.4745,89.6044,8.802e-05,9.79e-06,0.0,0 STARLINK-6196,1 56487U 23064AR  24158.60654585  .00000979  00000-0  88020-4 0  9991,2 56487  69.9989 280.8851 0003231 270.4745  89.6044 14.99148448 60203,6947.663,96.055,571.773,567.283,0.0
56487.0,STARLINK-6196,PAYLOAD,2024-06-07 09:46:25,14.99131433,0.0003019,69.9992,278.8636,269.0906,90.9907,0.00018951,2.216e-05,0.0,0 STARLINK-6196,1 56487U 23064AR  24159.40724444  .00002216  00000-0  18951-3 0  9993,2 56487  69.9992 278.8636 0003019 269.0906  90.9907 14.99131433 60683,6947.716,96.056,571.678,567.483,0.0
56487.0,STARLINK-6196,PAYLOAD,2024-06-07 14:34:40,14.99140607,0.0002866,69.9981,278.356,263.0469,97.0365,0.00021848,2.569e-05,0.0,0 STARLINK-6196,1 56487U 23064AR  24159.60741062  .00002569  00000-0  21848-3 0  9990,2 56487  69.9981 278.3560 0002866 263.0469  97.0365 14.99140607 60352,6947.687,96.055,571.543,567.561,0.0
56487.0,STARLINK-6196,PAYLOAD,2024-06-08 14:35:53,14.99154264,0.0003167,70.0,275.8311,266.8035,93.2763,0.00020476,2.403e-05,0.0,0 STARLINK-6196,1 56487U 23064AR  24160.60826172  .00002403  00000-0  20476-3 0  9991,2 56487  70.0000 275.8311 0003167 266.8035  93.2763 14.99154264 60509,6947.645,96.054,571.71,567.31,0.0
56487.0,STARLINK-6196,PAYLOAD,2024-06-08 16:11:58,14.99154771,0.0003174,70.0002,275.6627,266.9726,93.107,0.000221,2.601e-05,0.0,0 STARLINK-6196,1 56487U 23064AR  24160.67498563  .00002601  00000-0  22100-3 0  9993,2 56487  70.0002 275.6627 0003174 266.9726  93.1070 14.99154771 60878,6947.644,96.054,571.714,567.303,0.0
56487.0,STARLINK-6196,PAYLOAD,2024-06-09 11:24:58,14.99137751,0.0002951,69.9994,273.6403,268.8486,91.2335,-2.489e-05,-3.97e-06,0.0,0 STARLINK-6196,1 56487U 23064AR  24161.47568239 -.00000397  00000-0 -24890-4 0  9991,2 56487  69.9994 273.6403 0002951 268.8486  91.2335 14.99137751 60996,6947.696,96.055,571.611,567.511,0.0
56487.0,STARLINK-6196,PAYLOAD,2024-06-09 14:37:09,14.99133831,0.0002952,69.9997,273.3033,269.6919,90.3902,-7.2875e-05,-9.81e-06,0.0,0 STARLINK-6196,1 56487U 23064AR  24161.60913301 -.00000981  00000-0 -72875-4 0  9995,2 56487  69.9997 273.3033 0002952 269.6919  90.3902 14.99133831 60654,6947.708,96.055,571.624,567.522,0.0
56487.0,STARLINK-6196,PAYLOAD,2024-06-10 11:26:13,14.99143861,0.0003254,70.0003,271.1143,273.9557,86.123,0.00013429,1.543e-05,0.0,0 STARLINK-6196,1 56487U 23064AR  24162.47654190  .00001543  00000-0  13429-3 0  9991,2 56487  70.0003 271.1143 0003254 273.9557  86.1230 14.99143861 61141,6947.677,96.055,571.803,567.281,0.0
56487.0,STARLINK-6196,PAYLOAD,2024-06-10 14:38:23,14.9914458,0.0002988,70.0,270.777,270.5963,89.4854,0.00022249,2.619e-05,0.0,0 STARLINK-6196,1 56487U 23064AR  24162.60998989  .00002619  00000-0  22249-3 0  9998,2 56487  70.0000 270.7770 0002988 270.5963  89.4854 14.99144580 60805,6947.675,96.055,571.616,567.464,0.0
56487.0,STARLINK-6196,PAYLOAD,2024-06-10 16:14:27,14.99150631,0.0003315,70.0001,270.6091,272.5932,87.4848,0.00025672,3.037e-05,0.0,0 STARLINK-6196,1 56487U 23064AR  24162.67671010  .00003037  00000-0  25672-3 0  9996,2 56487  70.0001 270.6091 0003315 272.5932  87.4848 14.99150631 60810,6947.656,96.054,571.824,567.218,0.0
56487.0,STARLINK-6196,PAYLOAD,2024-06-11 13:03:32,14.99147664,0.0003143,70.0009,268.4207,272.9817,87.0983,0.00042468,5.086e-05,0.0,0 STARLINK-6196,1 56487U 23064AR  24163.54412514  .00005086  00000-0  42468-3 0  9993,2 56487  70.0009 268.4207 0003143 272.9817  87.0983 14.99147664 60949,6947.665,96.055,571.714,567.347,0.0
56487.0,STARLINK-6196,PAYLOAD,2024-06-12 00:16:06,14.99146065,0.000309,70.0008,267.2415,273.4038,86.6768,0.00015613,1.81e-05,0.0,0 STARLINK-6196,1 56487U 23064AR  24164.01119109  .00001810  00000-0  15613-3 0  9993,2 56487  70.0008 267.2415 0003090 273.4038  86.6768 14.99146065 61376,6947.67,96.055,571.682,567.389,0.0
56487.0,STARLINK-6196,PAYLOAD,2024-06-12 06:40:26,14.99137176,0.0002828,70.0014,266.5681,272.2761,87.8074,-0.00014976,-1.918e-05,0.0,0 STARLINK-6196,1 56487U 23064AR  24164.27808975 -.00001918  00000-0 -14976-3 0  9999,2 56487  70.0014 266.5681 0002828 272.2761  87.8074 14.99137176 61059,6947.698,96.055,571.528,567.598,0.0
56487.0,STARLINK-6196,PAYLOAD,2024-06-12 13:04:47,14.99138317,0.0002877,70.0001,265.8945,271.3096,88.7733,-8.1228e-06,-1.93e-06,0.0,0 STARLINK-6196,1 56487U 23064AR  24164.54499059 -.00000193  00000-0 -81228-5 0  9998,2 56487  70.0001 265.8945 0002877 271.3096  88.7733 14.99138317 61459,6947.694,96.055,571.558,567.561,0.0
56487.0,STARLINK-6196,PAYLOAD,2024-06-12 16:16:57,14.99133485,0.0002938,70.0001,265.5565,268.5319,91.5504,-7.127e-05,-9.62e-06,0.0,0 STARLINK-6196,1 56487U 23064AR  24164.67844267 -.00000962  00000-0 -71270-4 0  9996,2 56487  70.0001 265.5565 0002938 268.5319  91.5504 14.99133485 61110,6947.709,96.055,571.616,567.533,0.0
56487.0,STARLINK-6196,PAYLOAD,2024-06-13 13:06:00,14.99144229,0.0003252,69.9992,263.3656,268.014,92.0647,7.3833e-05,8.06e-06,0.0,0 STARLINK-6196,1 56487U 23064AR  24165.54584374  .00000806  00000-0  73833-4 0  9995,2 56487  69.9992 263.3656 0003252 268.0140  92.0647 14.99144229 61606,6947.676,96.055,571.8,567.282,0.0
56487.0,STARLINK-6196,PAYLOAD,2024-06-13 14:42:05,14.99144466,0.0003295,69.9991,263.1971,268.3379,91.7403,7.4491e-05,8.14e-06,0.0,0 STARLINK-6196,1 56487U 23064AR  24165.61256748  .00000814  00000-0  74491-4 0  9994,2 56487  69.9991 263.1971 0003295 268.3379  91.7403 14.99144466 61257,6947.675,96.055,571.83,567.251,0.0
56487.0,STARLINK-6196,PAYLOAD,2024-06-13 16:18:10,14.99145228,0.0003235,69.9993,263.0289,267.4889,92.59,8.7968e-05,9.78e-06,0.0,0 STARLINK-6196,1 56487U 23064AR  24165.67929062  .00000978  00000-0  87968-4 0  9990,2 56487  69.9993 263.0289 0003235 267.4889  92.5900 14.99145228 61269,6947.673,96.055,571.786,567.29,0.0
56487.0,STARLINK-6196,PAYLOAD,2024-06-14 14:43:20,14.99139045,0.000327,69.9993,260.6711,266.8363,93.2422,0.00018532,2.165e-05,0.0,0 STARLINK-6196,1 56487U 23064AR  24166.61343076  .00002165  00000-0  18532-3 0  9990,2 56487  69.9993 260.6711 0003270 266.8363  93.2422 14.99139045 61404,6947.692,96.055,571.829,567.285,0.0
56487.0,STARLINK-6196,PAYLOAD,2024-06-15 14:44:34,14.99149796,0.0003266,69.9992,258.1447,266.9638,93.1148,0.00013067,1.499e-05,0.0,0 STARLINK-6196,1 56487U 23064AR  24167.61428271  .00001499  00000-0  13067-3 0  9999,2 56487  69.9992 258.1447 0003266 266.9638  93.1148 14.99149796 61556,6947.659,96.054,571.793,567.255,0.0
56487.0,STARLINK-6196,PAYLOAD,2024-06-15 16:20:38,14.99150817,0.0003261,69.9992,257.9762,266.9865,93.0922,0.00014033,1.617e-05,0.0,0 STARLINK-6196,1 56487U 23064AR  24167.68100550  .00001617  00000-0  14033-3 0  9999,2 56487  69.9992 257.9762 0003261 266.9865  93.0922 14.99150817 61566,6947.656,96.054,571.786,567.255,0.0
56487.0,STARLINK-6196,PAYLOAD,2024-06-16 13:09:43,14.99143609,0.00032,69.9995,255.7866,265.3002,94.7792,7.948e-05,8.75e-06,0.0,0 STARLINK-6196,1 56487U 23064AR  24168.54842052  .00000875  00000-0  79480-4 0  9998,2 56487  69.9995 255.7866 0003200 265.3002  94.7792 14.99143609 61697,6947.678,96.055,571.766,567.32,0.0
56487.0,STARLINK-6196,PAYLOAD,2024-06-16 16:21:53,14.99142693,0.0003157,69.9995,255.4496,264.9458,95.1341,0.00012531,1.434e-05,0.0,0 STARLINK-6196,1 56487U 23064AR  24168.68186787  .00001434  00000-0  12531-3 0  9994,2 56487  69.9995 255.4496 0003157 264.9458  95.1341 14.99142693 61714,6947.681,96.055,571.739,567.352,0.0
56487.0,STARLINK-6196,PAYLOAD,2024-06-17 11:34:53,14.99139395,0.0002895,70.0001,253.4281,267.1271,92.9557,4.0142e-05,3.95e-06,0.0,0 STARLINK-6196,1 56487U 23064AR  24169.48256065  .00000395  00000-0  40142-4 0  9995,2 56487  70.0001 253.4281 0002895 267.1271  92.9557 14.99139395 61833,6947.691,96.055,571.567,567.545,0.0
